[{"OBJECT_NAME":"STARLINK-30565","OBJECT_ID":"2023-156G","EPOCH":"2026-03-09T10:31:28.903008","MEAN_MOTION":15.30193119,"ECCENTRICITY":0.00012538,"INCLINATION":53.1608,"RA_OF_ASC_NODE":79.6446,"ARG_OF_PERICENTER":83.6454,"MEAN_ANOMALY":276.469,"EPHEMERIS_TYPE":0,"CLASSIFICATION_TYPE":"U","NORAD_CAT_ID":58034,"ELEMENT_SET_NO":999,"REV_AT_EPOCH":13627,"BSTAR":2.9031876e-5,"MEAN_MOTION_DOT":5.01e-6,"MEAN_MOTION_DDOT":0},{"OBJECT_NAME":"SCS-01 B","OBJECT_ID":"2025-100B","EPOCH":"2026-03-09T21:49:11.508672","MEAN_MOTION":15.3317485,"ECCENTRICITY":0.00088698,"INCLINATION":97.3706,"RA_OF_ASC_NODE":145.9041,"ARG_OF_PERICENTER":288.6157,"MEAN_ANOMALY":71.4122,"EPHEMERIS_TYPE":0,"CLASSIFICATION_TYPE":"U","NORAD_CAT_ID":63983,"ELEMENT_SET_NO":999,"REV_AT_EPOCH":4567,"BSTAR":0.00098809397,"MEAN_MOTION_DOT":0.00031724,"MEAN_MOTION_DDOT":0}]
